[
    {
        "Altitude(m)": 617710.6974870672,
        "Argument of Periapsis(deg)": 0.0,
        "Eccentricity": 0.0,
        "Inclination(deg)": 60.0,
        "Latitude(deg)": -41.10281668877389,
        "Longitude(deg)": -120.03339420530246,
        "Mean Anomaly(deg)": 310.9091000000001,
        "RAAN(deg)": 10.0,
        "Satellite Name": "Test1 63",
        "Satellite Number": 63,
        "Semi-Major Axis(m)": 6980739.136638005,
        "Time(s)": 0
    },
    {
        "Altitude(m)": 617517.9959294627,
        "Argument of Periapsis(deg)": 0.00010418945913296404,
        "Eccentricity": 0.0,
        "Inclination(deg)": 60.0,
        "Latitude(deg)": -40.637023895229405,
        "Longitude(deg)": -119.53659904578923,
        "Mean Anomaly(deg)": 311.5292061454619,
        "RAAN(deg)": 9.999579950860259,
        "Satellite Name": "Test1 63",
        "Satellite Number": 63,
        "Semi-Major Axis(m)": 6980739.136638005,
        "Time(s)": 10
    }
]